#aV2012  3  8  0  0  0.00000000     288 DD+AD WGS84 FIT  NGA
## 1678 345600.00000000   300.00000000 55994 0.0000000000000
+   32     1  2  3  4  5  6  7  8  9 10 11 12 13 14 15 16 17
+         18 19 20 21 22 23 24 25 26 27 28 29 30 31 32  0  0
+          0  0  0  0  0  0  0  0  0  0  0  0  0  0  0  0  0
+          0  0  0  0  0  0  0  0  0  0  0  0  0  0  0  0  0
+          0  0  0  0  0  0  0  0  0  0  0  0  0  0  0  0  0
++         2  2  2  2  2  2  2  2  2  2  2  2  2  2  2  2  2
++         2  2  2  2  2  2  2  2  2  2  2  2  2  2  2  0  0
++         0  0  0  0  0  0  0  0  0  0  0  0  0  0  0  0  0
++         0  0  0  0  0  0  0  0  0  0  0  0  0  0  0  0  0
++         0  0  0  0  0  0  0  0  0  0  0  0  0  0  0  0  0
%c cc cc ccc ccc cccc cccc cccc cccc ccccc ccccc ccccc ccccc
%c cc cc ccc ccc cccc cccc cccc cccc ccccc ccccc ccccc ccccc
%f  0.0000000  0.000000000  0.00000000000  0.000000000000000
%f  0.0000000  0.000000000  0.00000000000  0.000000000000000
%i    0    0    0    0      0      0      0      0         0
%i    0    0    0    0      0      0      0      0         0
/*      NGA, ST. LOUIS,MO.                                  
/*   EPHEMERIS COMPUTED FROM  1 DAYS OF DATA
/*   EPOCHA SMOOTHER  
/* CCCCCCCCCCCCCCCCCCCCCCCCCCCCCCCCCCCCCCCCCCCCCCCCCCCCCCCCC
*  2012  3  8 19 25  0.00000000                                                 
P  1 -14298.036776   5744.955500  21619.383520    228.517076                    
V  1  -5405.436076 -26948.607835   3603.979441      0.077470                    
P  2  13474.347002  19135.308650 -12915.933139    382.021573                    
V  2    813.034179  16592.508972  24718.801411      0.014943                    
P  3 -23106.893120 -11048.127547  -8021.614880     19.693058                    
V  3   9998.186875  -1115.467295 -28651.975835      0.050881                    
P  4   7619.474377  24964.622285  -4095.809666    116.873947                    
V  4  -2766.018359   5557.073222  30876.375842      0.114684                    
P  5  15626.240793   6039.869548 -20661.168100   -291.498516                    
V  5 -19364.438732  17645.696843  -9374.476444     -0.043479                    
P  6 -20297.545344 -13858.339532 -10293.743169     31.794876                    
V  6  13501.032685    922.258748 -27226.213878      0.003758                    
P  7  -7885.011640  19339.401400 -16239.893940     62.848104                    
V  7  -5147.492923 -20149.977539 -21706.244865      0.029332                    
P  8  -1334.715891  25633.930068  -5446.985283      0.761030                    
V  8  -2648.616407  -6884.158195 -31941.730781      0.001041                    
P  9  14475.090634  -1019.557066  21696.777162    143.458401                    
V  9   5358.185995  28318.008610  -2216.899722      0.024741                    
P 10  -1315.930917  18678.522758 -18933.573584    -31.551970                    
V 10 -19480.493406  13626.634367  15389.408085     -0.012661                    
P 11 -17873.825762   -912.436249  19325.560971   -239.708929                    
V 11  -9743.250631 -23721.615813  -9614.408893     -0.037542                    
P 12  22462.974086  -8762.999832  10925.685179     56.730938                    
V 12  -9472.511543  10393.598800  28007.598236      0.021286                    
P 13 -13180.506625   9371.391561 -21231.285025    220.629052                    
V 13 -23855.628484 -11624.819767   9661.901714     -0.021925                    
P 14  -6825.036071 -17104.634105  19362.849389    196.424718                    
V 14  22532.992948   8662.676887  15603.181374      0.012486                    
P 15  25226.743808   2032.524225   8399.625041    -92.196475                    
V 15   9186.555781   6074.810216 -28823.788874      0.003516                    
P 16 -14756.610595  -6495.692268 -21151.765812   -226.579680                    
V 16  20786.631480 -16880.138554  -9007.512289     -0.015650                    
P 17   4013.528137  16851.242367  20368.176476    143.968623                    
V 17 -23943.307906  -8565.059130  11669.323884     -0.026542                    
P 18  15421.391436 -20145.513340   7546.768424    185.211879                    
V 18   9543.137154  -3022.926314 -29262.371534      0.017875                    
P 19 -25125.786185  -6739.058641   6250.891505   -243.507195                    
V 19  -6168.036196  -5498.951739 -30167.661155     -0.037986                    
P 20 -21970.835866  12709.839778   7539.413491     63.403875                    
V 20   4763.886770  -9350.242032  29088.517762      0.006468                    
P 21   5182.544493 -22494.756565 -12129.512933   -209.339689                    
V 21   6409.325643  15553.542721 -25734.029406     -0.025049                    
P 22   2424.567703 -19492.275818  18000.626156    142.997870                    
V 22  18810.545332 -12819.312292 -16692.957940     -0.000943                    
P 23 -21985.436528   2889.157412 -14856.999147    226.088104                    
V 23 -16950.111039  -8266.576985  23073.587268     -0.034763                    
P 24  -1188.176473 -17138.011172 -20335.651655   -254.725850                    
V 24  20178.924728 -15713.084561  12299.120446      0.004992                    
P 25  19553.494818 -17906.438685  -1018.441446     32.103091                    
V 25   2696.865947   1176.243482  31898.121743      0.002377                    
P 26  22686.384722  13654.399385  -4541.258164   -125.270689                    
V 26  -5158.141261   -538.142286 -31338.963580     -0.581791                    
P 27  15846.704719   7370.670562  20765.757281    364.729715                    
V 27   4946.116283  24279.733320 -12332.375199      0.040566                    
P 28  -5881.332822  19455.902001  17528.594083    120.507980                    
V 28 -17658.845314  11867.961146 -19946.205537      0.039615                    
P 29  15129.554678  -8788.317450 -19900.992412    291.844208                    
V 29  23120.909086  10644.344740  12873.202745      0.036273                    
P 30  -6987.589485 -14496.437017 -21482.130656    -74.843722                    
V 30  18747.643157 -18688.161744   6630.788166     -0.155937                    
P 31  -7109.515459 -25042.722296  -4362.914402    217.172607                    
V 31   1375.312661  -6123.569985  31718.692119      0.044834                    
P 32 -22135.731787   3351.414994  14140.210482   -417.694182                    
V 32  13007.027679 -12419.360765  24137.575056     -0.049978                    
EOF
